STARLINK-1762           
1 46342U 20062T   26068.28013643  .00013108  00000+0  45337-3 0  9995
2 46342  53.1598  12.8842 0001207  92.6573 267.4566 15.30238327304332
TOMORROW-S2             
1 60485U 24149T   26068.75188364  .00008133  00000+0  27683-3 0  9990
2 60485  97.3857 150.0385 0001648 234.3331 125.7757 15.30674935 86869
